FENGYUN 1C DEB          
1 30523U 99025AJM 17346.36892567  .00000087  00000-0  42216-4 0  9999
2 30523  98.5576  30.8993 0254565  36.2271  18.0352 14.24176767565207
